OBJECT_NAME,OBJECT_ID,EPOCH,MEAN_MOTION,ECCENTRICITY,INCLINATION,RA_OF_ASC_NODE,ARG_OF_PERICENTER,MEAN_ANOMALY,EPHEMERIS_TYPE,CLASSIFICATION_TYPE,NORAD_CAT_ID,ELEMENT_SET_NO,REV_AT_EPOCH,BSTAR,MEAN_MOTION_DOT,MEAN_MOTION_DDOT
GS-1,2023-060C,2026-06-05T15:39:10.125792,1.00277841,.0004012,2.6974,79.9630,279.8195,218.2961,0,U,56372,999,742,0,-.211E-5,0
BEIDOU-3 G4,2023-066A,2026-06-06T20:58:58.141920,1.00267598,.0004428,0.4993,328.7550,169.0552,212.2130,0,U,56564,999,1129,0,-.269E-5,0
ARABSAT-7B (BADR-8),2023-075A,2026-06-05T15:21:06.850368,1.00272024,.00049339,0.0749,26.6091,356.9344,126.8188,0,U,56757,999,1100,0,.157E-5,0
NVS-01 (IRNSS-1J),2023-076A,2026-06-06T19:13:18.170400,1.00270702,.000292,2.1915,244.8244,41.7501,26.5630,0,U,56759,999,1101,0,-.322E-5,0
NUSANTARA TIGA (SATRIA),2023-086A,2026-06-05T17:38:01.084128,1.00269213,.00035681,0.0379,343.7809,1.5282,319.3542,0,U,57045,999,964,0,-.222E-5,0
H2SAT (HEINRICH HERTZ),2023-093A,2026-06-04T03:17:58.373952,1.00272490,.00009749,0.0448,123.4904,332.0680,207.2004,0,U,57213,999,1078,0,.14E-6,0
SYRACUSE 4B,2023-093B,2026-06-05T18:37:10.932672,1.00274225,.00002199,0.0174,10.2429,144.0914,12.7461,0,U,57214,999,685,0,-.4E-6,0
JUPITER 3 (ECHOSTAR 24),2023-108A,2026-06-04T13:28:56.229024,1.00269922,.00012025,0.0197,333.9789,99.7783,286.2561,0,U,57479,999,1052,0,0,0
GALAXY 37 (G-37),2023-112A,2026-06-06T16:17:27.816288,1.00271537,.0002104,0.0178,326.1670,109.9371,296.3618,0,U,57493,999,1043,0,.62E-6,0
LUDI TANCE-4 01A,2023-120A,2026-06-05T14:06:14.681952,1.00271875,.0000804,15.1089,194.2573,79.8156,281.2254,0,U,57624,999,1043,0,-.165E-5,0
TJS-10,2023-169A,2026-06-06T17:31:14.954016,1.00268512,.0003908,2.5167,80.6152,98.1573,71.6017,0,U,58204,999,943,0,-.235E-5,0
ZHONGXING-6E,2023-172A,2026-06-06T20:51:58.811616,1.00267438,.0002482,0.0135,355.5642,86.0560,242.1963,0,U,58253,999,955,0,0,0
YAOGAN-41,2023-197A,2026-06-05T07:15:29.029248,1.00277565,.0014164,3.1509,312.9485,192.1434,340.6332,0,U,58582,999,920,0,-.351E-5,0
OVZON-3,2024-003A,2026-06-06T21:19:21.067392,1.00271811,.0000281,0.0056,262.3120,118.2935,254.2390,0,U,58698,999,734,0,.65E-6,0
INSAT-3DS,2024-033A,2026-06-06T18:59:43.203264,1.00273516,.0001336,0.0055,267.3022,165.6060,189.2991,0,U,58990,999,4696,0,-.143E-5,0
MERAH PUTIH 2,2024-035A,2026-06-06T19:08:33.624096,1.00272413,.0001356,0.0179,297.9018,133.4449,223.9668,0,U,58995,999,848,0,-.344E-5,0
TJS-11,2024-037A,2026-06-06T21:02:59.170272,1.00069124,.0004032,4.2117,326.9257,138.7067,218.1327,0,U,59020,999,847,0,-.336E-5,0
HULIANWAN GAOGUI-01 (HG-01),2024-040A,2026-06-06T18:45:52.030944,1.00270391,.000305,0.0690,326.0982,79.7937,164.3979,0,U,59069,999,722,0,.169E-5,0
EUTELSAT 36D,2024-059A,2026-06-06T18:44:24.480096,1.00271265,.0000371,0.0175,14.8921,140.6310,56.6564,0,U,59346,999,804,0,.169E-5,0
PAKSAT-MM1,2024-104A,2026-06-03T15:29:55.900032,1.00274914,.00020461,0.0154,42.0049,27.2826,93.4750,0,U,59915,999,739,0,.165E-5,0
ASTRA 1P (SES-24),2024-115A,2026-06-05T18:44:32.727840,1.00270482,.00007296,0.0643,14.2112,359.6761,180.6635,0,U,60086,999,708,0,.132E-5,0
GOES 19,2024-119A,2026-06-06T14:49:33.057408,1.00270677,.0000664,0.0379,148.3333,350.4093,263.4884,0,U,60133,999,685,0,-.235E-5,0
ZHONGXING-3A,2024-122A,2026-06-06T20:22:21.679392,1.00273610,.000141,0.0425,119.1641,341.0815,202.1910,0,U,60179,999,720,0,-.3E-5,0
TURKSAT 6A,2024-127A,2026-06-06T18:50:48.787296,1.00271938,.000168,0.0466,161.0718,323.3600,95.4713,0,U,60233,999,691,0,.16E-5,0
HULIANWAN GAOGUI-02 (HG-02),2024-135A,2026-06-06T19:20:02.524128,1.00271529,.0007749,0.0426,350.4048,17.7441,330.2802,0,U,60327,999,739,0,-.159E-5,0
ZHONGXING-4A,2024-151A,2026-06-06T20:29:37.869792,1.00271153,.0000557,1.3418,270.9580,196.9015,213.0495,0,U,60606,999,665,0,-.349E-5,0
HULIANWAN GAOGUI-03 (HG-03),2024-181A,2026-06-05T14:51:39.672288,1.00270862,.00014908,0.0446,357.1623,106.3545,296.3114,0,U,61503,999,670,0,-.229E-5,0
DSN-3 (KIRAMEKI-3),2024-198A,2026-06-06T19:17:25.276128,1.00271353,.0000887,0.0226,282.1787,224.8307,181.6410,0,U,61733,999,581,0,-.236E-5,0
KOREASAT 6A,2024-206A,2026-06-05T19:12:03.766176,1.00268534,.00009978,0.0202,85.2997,352.4940,220.4354,0,U,61910,999,572,0,-.349E-5,0
OPTUS-X (ADS-01),2024-212A,2026-06-06T19:20:54.941280,1.00271529,.0001786,0.0128,306.4608,167.3184,228.0834,0,U,62006,999,565,0,-.13E-5,0
GSAT-N2 (GSAT-20),2024-214A,2026-06-06T19:58:18.141888,1.00269109,.0002154,0.0121,288.9419,140.8409,193.0767,0,U,62028,999,579,0,-.6E-7,0
SXM-9,2024-234A,2026-06-05T21:40:00.630048,1.00270936,.0004717,0.0145,326.8597,350.2099,177.1093,0,U,62259,999,546,0,-.192E-5,0
TJS-12,2024-246A,2026-06-06T15:13:38.481888,1.00273183,.0002296,0.6945,298.1018,88.5231,243.3913,0,U,62374,999,545,0,-.217E-5,0
NUVIEW ALPHA,2024-252B,2026-06-06T07:56:37.041792,1.00271379,.00009873,0.0610,38.5339,12.8436,239.4479,0,U,62455,999,371,0,-.202E-5,0
AGILA,2024-252C,2026-06-06T17:36:59.783328,1.00270647,.0001028,0.0539,135.6399,325.9247,209.9811,0,U,62456,999,505,0,-.168E-5,0
NUVIEW BRAVO,2024-252D,2026-06-06T07:56:37.041792,1.00271625,.00017297,0.0729,141.2633,334.3358,175.1999,0,U,62457,999,368,0,-.202E-5,0
THURAYA-4,2025-001A,2026-06-06T00:07:38.923104,1.00272802,.00001662,0.0265,66.4615,53.3446,180.8529,0,U,62483,999,406,0,.152E-5,0
SHIJIAN-25 (SJ-25),2025-002A,2026-06-06T17:37:26.961312,1.00277355,.005176,5.0875,61.2261,172.9258,52.6784,0,U,62485,999,525,0,-.336E-5,0
TJS-14,2025-017A,2026-06-06T20:24:14.122080,1.00270744,.0000642,0.8068,294.8578,276.5666,8.2620,0,U,62804,999,516,0,.129E-5,0
SPAINSAT NG I,2025-021A,2026-06-06T19:20:05.370144,1.00270690,.0000086,0.0146,336.4878,125.4183,112.3496,0,U,62852,999,388,0,.165E-5,0
QZS-6 (MICHIBIKI-6),2025-023A,2026-06-06T21:14:45.854880,1.00274505,.0002052,0.0260,45.4061,37.8318,221.2394,0,U,62876,999,484,0,-.22E-5,0
ZHONGXING-10R,2025-036A,2026-06-06T20:23:55.775040,1.00270791,.0003344,0.0467,251.6114,249.6278,170.5474,0,U,63075,999,485,0,-.338E-5,0
TJS-15,2025-045A,2026-06-06T17:46:27.692256,1.00268742,.0005451,0.2779,85.3886,299.0666,231.6960,0,U,63157,999,465,0,-.251E-5,0
TIANLIAN 2-04,2025-062A,2026-06-06T20:41:48.941664,1.00270554,.0031435,4.4022,274.5871,10.6540,0.5489,0,U,63361,999,450,0,-.123E-5,0
TJS-16,2025-064A,2026-06-06T18:45:28.701216,1.00272320,.0003657,1.0705,81.5166,293.1533,322.4972,0,U,63397,999,428,0,-.91E-6,0
TJS-17,2025-073A,2026-06-06T18:45:45.777312,1.00272365,.000243,1.0363,82.7836,301.0573,317.3124,0,U,63524,999,418,0,-.56E-6,0
TIANLIAN 2-05,2025-084A,2026-06-05T13:36:51.042816,1.00272832,.00035885,4.4814,279.9668,145.2192,53.4368,0,U,63662,999,426,0,.136E-5,0
TJS-19,2025-097A,2026-06-06T18:45:54.501984,1.00270006,.0001981,3.3046,317.2592,233.5546,127.1483,0,U,63924,999,403,0,-.265E-5,0
CHINASAT 3B,2025-106A,2026-06-05T14:40:38.519616,1.00272768,.0002886,0.0295,97.2553,13.4241,170.8480,0,U,64062,999,394,0,-.32E-6,0
SXM-10,2025-122A,2026-06-06T16:20:35.015712,1.00271371,.0001756,0.0181,18.7685,357.1342,8.1731,0,U,64290,999,357,0,-.3E-7,0
COSMOS 2589,2025-131A,2026-06-06T17:48:25.121088,1.00270705,.0001278,0.0451,69.4424,80.1765,110.6210,0,U,64467,999,345,0,-.277E-5,0
CHINASAT 9C,2025-132A,2026-06-06T20:54:21.690432,1.00273092,.0002898,0.0303,261.0673,175.4536,224.5643,0,U,64470,999,404,0,-.234E-5,0
MTG-S1,2025-143A,2026-06-06T18:35:23.452800,1.00271640,.0001104,0.6126,336.6189,33.3361,160.6048,0,U,64723,999,331,0,-.18E-6,0
DROR 1,2025-148A,2026-06-06T18:35:08.477088,1.00271735,.0002943,0.0099,340.1722,51.1079,138.6866,0,U,64784,999,319,0,-.21E-6,0
SHIYAN-29,2025-196A,2026-06-06T01:56:33.698976,1.00257909,.0010791,28.8092,18.6769,170.7480,188.4746,0,U,65486,999,276,0,-.259E-5,0
NUSANTARA LIMA (NUSANTARA 5),2025-205A,2026-06-06T19:08:33.624096,1.00270628,.0000541,0.0437,144.1244,337.6298,173.4462,0,U,65588,999,261,0,-.344E-5,0
TJS-20,2025-238A,2026-06-06T19:17:39.932160,1.00272476,.0004785,5.4936,299.5907,155.7474,151.6771,0,U,66142,999,222,0,.35E-6,0
CMS-03 (GSAT-7R),2025-249B,2026-06-06T20:40:04.109088,1.00271536,.0001874,0.0290,260.6258,173.8376,204.8281,0,U,66311,999,224,0,-.63E-6,0
VIASAT-3 F2,2025-261A,2026-06-06T18:13:41.264832,1.00271245,.0000208,0.0433,144.7728,296.1276,8.6989,0,U,66454,999,268,0,-.22E-5,0
SHIJIAN-28 (SJ-28),2025-277A,2026-06-06T19:09:41.016096,1.00269171,.0000431,4.5661,272.2986,358.4252,28.8048,0,U,66549,999,205,0,-.348E-5,0
TJS-22,2025-290A,2026-06-05T21:44:45.675744,1.00271743,.0002001,1.5554,286.4418,333.3722,27.1507,0,U,66990,999,191,0,.6E-7,0
TJS-23,2025-306A,2026-06-06T15:08:30.706944,1.00272906,.0005037,5.6115,297.5457,164.2302,195.8754,0,U,67226,999,178,0,.27E-6,0
FENGYUN 4C,2025-312A,2026-06-06T00:24:54.203328,1.00272480,.00004824,0.0402,145.4812,20.6439,227.5437,0,U,67246,999,166,0,-.31E-5,0
SHIJIAN-29A (SJ-29A),2025-315A,2026-06-06T18:01:39.302112,1.00270073,.0003322,3.3704,95.3697,20.3058,123.1572,0,U,67302,999,151,0,-.54E-6,0
SHIJIAN-29B (SJ-29B),2025-315C,2026-06-06T16:01:19.045056,1.00270167,.0003515,3.3691,95.3635,21.7816,91.5663,0,U,67403,999,158,0,-.54E-6,0
ELEKTRO-L 5,2026-028A,2026-06-06T01:57:52.409376,1.00271282,.0001561,0.2721,307.8679,182.6843,229.4682,0,U,67756,999,114,0,-.85E-6,0
JAM-E JAM 1,2026-028B,2026-06-06T18:41:12.639264,1.00271144,.0000821,0.2829,299.1887,300.7747,329.4299,0,U,67757,999,101,0,.169E-5,0
ECHOSTAR 25,2026-045A,2026-06-06T16:22:19.849152,1.00268709,.0001201,0.0147,350.9914,98.3600,301.3351,0,U,68126,999,88,0,0,0
